[{"CCSDS_OMM_VERS":"2.0","COMMENT":"GENERATED VIA SPACE-TRACK.ORG API","CREATION_DATE":"2021-07-30T03:36:10","ORIGINATOR":"18 SPCS","OBJECT_NAME":"STARLINK-1098","OBJECT_ID":"2020-001D","CENTER_NAME":"EARTH","REF_FRAME":"TEME","TIME_SYSTEM":"UTC","MEAN_ELEMENT_THEORY":"SGP4","EPOCH":"2021-07-29T16:51:35.777952","MEAN_MOTION":"15.06391677","ECCENTRICITY":"0.00011620","INCLINATION":"53.0570","RA_OF_ASC_NODE":"346.3390","ARG_OF_PERICENTER":"105.9732","MEAN_ANOMALY":"254.1385","EPHEMERIS_TYPE":"0","CLASSIFICATION_TYPE":"U","NORAD_CAT_ID":"44917","ELEMENT_SET_NO":"999","REV_AT_EPOCH":"8603","BSTAR":"0.00008653400000","MEAN_MOTION_DOT":"0.00001008","MEAN_MOTION_DDOT":"0.0000000000000","SEMIMAJOR_AXIS":"6925.374","PERIOD":"95.593","APOAPSIS":"548.044","PERIAPSIS":"546.434","OBJECT_TYPE":"PAYLOAD","RCS_SIZE":"LARGE","COUNTRY_CODE":"US","LAUNCH_DATE":"2020-01-07","SITE":"AFETR","DECAY_DATE":null,"FILE":"3085670","GP_ID":"181719390","TLE_LINE0":"0 STARLINK-1098","TLE_LINE1":"1 44917U 20001D   21210.70249743  .00001008  00000-0  86534-4 0  9999","TLE_LINE2":"2 44917  53.0570 346.3390 0001162 105.9732 254.1385 15.06391677 86032"},{"CCSDS_OMM_VERS":"2.0","COMMENT":"GENERATED VIA SPACE-TRACK.ORG API","CREATION_DATE":"2021-07-30T07:06:14","ORIGINATOR":"18 SPCS","OBJECT_NAME":"STARLINK-1098","OBJECT_ID":"2020-001D","CENTER_NAME":"EARTH","REF_FRAME":"TEME","TIME_SYSTEM":"UTC","MEAN_ELEMENT_THEORY":"SGP4","EPOCH":"2021-07-30T02:24:49.920192","MEAN_MOTION":"15.06394151","ECCENTRICITY":"0.00011410","INCLINATION":"53.0570","RA_OF_ASC_NODE":"344.5520","ARG_OF_PERICENTER":"105.7766","MEAN_ANOMALY":"254.3349","EPHEMERIS_TYPE":"0","CLASSIFICATION_TYPE":"U","NORAD_CAT_ID":"44917","ELEMENT_SET_NO":"999","REV_AT_EPOCH":"8609","BSTAR":"0.00009243400000","MEAN_MOTION_DOT":"0.00001096","MEAN_MOTION_DDOT":"0.0000000000000","SEMIMAJOR_AXIS":"6925.366","PERIOD":"95.593","APOAPSIS":"548.022","PERIAPSIS":"546.441","OBJECT_TYPE":"PAYLOAD","RCS_SIZE":"LARGE","COUNTRY_CODE":"US","LAUNCH_DATE":"2020-01-07","SITE":"AFETR","DECAY_DATE":null,"FILE":"3085878","GP_ID":"181727024","TLE_LINE0":"0 STARLINK-1098","TLE_LINE1":"1 44917U 20001D   21211.10057778  .00001096  00000-0  92434-4 0  9992","TLE_LINE2":"2 44917  53.0570 344.5520 0001141 105.7766 254.3349 15.06394151 86097"},{"CCSDS_OMM_VERS":"2.0","COMMENT":"GENERATED VIA SPACE-TRACK.ORG API","CREATION_DATE":"2021-07-30T18:14:19","ORIGINATOR":"18 SPCS","OBJECT_NAME":"STARLINK-1098","OBJECT_ID":"2020-001D","CENTER_NAME":"EARTH","REF_FRAME":"TEME","TIME_SYSTEM":"UTC","MEAN_ELEMENT_THEORY":"SGP4","EPOCH":"2021-07-30T08:46:59.326752","MEAN_MOTION":"15.06395684","ECCENTRICITY":"0.00011280","INCLINATION":"53.0570","RA_OF_ASC_NODE":"343.3606","ARG_OF_PERICENTER":"106.0105","MEAN_ANOMALY":"254.1008","EPHEMERIS_TYPE":"0","CLASSIFICATION_TYPE":"U","NORAD_CAT_ID":"44917","ELEMENT_SET_NO":"999","REV_AT_EPOCH":"8613","BSTAR":"0.00009522200000","MEAN_MOTION_DOT":"0.00001137","MEAN_MOTION_DDOT":"0.0000000000000","SEMIMAJOR_AXIS":"6925.362","PERIOD":"95.592","APOAPSIS":"548.008","PERIAPSIS":"546.446","OBJECT_TYPE":"PAYLOAD","RCS_SIZE":"LARGE","COUNTRY_CODE":"US","LAUNCH_DATE":"2020-01-07","SITE":"AFETR","DECAY_DATE":null,"FILE":"3085948","GP_ID":"181747327","TLE_LINE0":"0 STARLINK-1098","TLE_LINE1":"1 44917U 20001D   21211.36596443  .00001137  00000-0  95222-4 0  9991","TLE_LINE2":"2 44917  53.0570 343.3606 0001128 106.0105 254.1008 15.06395684 86132"},{"CCSDS_OMM_VERS":"2.0","COMMENT":"GENERATED VIA SPACE-TRACK.ORG API","CREATION_DATE":"2021-07-31T04:28:50","ORIGINATOR":"18 SPCS","OBJECT_NAME":"STARLINK-1098","OBJECT_ID":"2020-001D","CENTER_NAME":"EARTH","REF_FRAME":"TEME","TIME_SYSTEM":"UTC","MEAN_ELEMENT_THEORY":"SGP4","EPOCH":"2021-07-30T15:09:08.623584","MEAN_MOTION":"15.06399157","ECCENTRICITY":"0.00011230","INCLINATION":"53.0570","RA_OF_ASC_NODE":"342.1693","ARG_OF_PERICENTER":"106.1960","MEAN_ANOMALY":"253.9152","EPHEMERIS_TYPE":"0","CLASSIFICATION_TYPE":"U","NORAD_CAT_ID":"44917","ELEMENT_SET_NO":"999","REV_AT_EPOCH":"8617","BSTAR":"0.00008887200000","MEAN_MOTION_DOT":"0.00001043","MEAN_MOTION_DDOT":"0.0000000000000","SEMIMAJOR_AXIS":"6925.351","PERIOD":"95.592","APOAPSIS":"547.994","PERIAPSIS":"546.438","OBJECT_TYPE":"PAYLOAD","RCS_SIZE":"LARGE","COUNTRY_CODE":"US","LAUNCH_DATE":"2020-01-07","SITE":"AFETR","DECAY_DATE":null,"FILE":"3086384","GP_ID":"181780190","TLE_LINE0":"0 STARLINK-1098","TLE_LINE1":"1 44917U 20001D   21211.63134981  .00001043  00000-0  88872-4 0  9995","TLE_LINE2":"2 44917  53.0570 342.1693 0001123 106.1960 253.9152 15.06399157 86170"},{"CCSDS_OMM_VERS":"2.0","COMMENT":"GENERATED VIA SPACE-TRACK.ORG API","CREATION_DATE":"2021-07-31T14:46:11","ORIGINATOR":"18 SPCS","OBJECT_NAME":"STARLINK-1098","OBJECT_ID":"2020-001D","CENTER_NAME":"EARTH","REF_FRAME":"TEME","TIME_SYSTEM":"UTC","MEAN_ELEMENT_THEORY":"SGP4","EPOCH":"2021-07-31T07:04:32.208672","MEAN_MOTION":"15.06400684","ECCENTRICITY":"0.00011000","INCLINATION":"53.0571","RA_OF_ASC_NODE":"339.1911","ARG_OF_PERICENTER":"105.1158","MEAN_ANOMALY":"254.9953","EPHEMERIS_TYPE":"0","CLASSIFICATION_TYPE":"U","NORAD_CAT_ID":"44917","ELEMENT_SET_NO":"999","REV_AT_EPOCH":"8627","BSTAR":"0.00005470200000","MEAN_MOTION_DOT":"0.00000534","MEAN_MOTION_DDOT":"0.0000000000000","SEMIMAJOR_AXIS":"6925.346","PERIOD":"95.592","APOAPSIS":"547.973","PERIAPSIS":"546.450","OBJECT_TYPE":"PAYLOAD","RCS_SIZE":"LARGE","COUNTRY_CODE":"US","LAUNCH_DATE":"2020-01-07","SITE":"AFETR","DECAY_DATE":null,"FILE":"3086791","GP_ID":"181816410","TLE_LINE0":"0 STARLINK-1098","TLE_LINE1":"1 44917U 20001D   21212.29481723  .00000534  00000-0  54702-4 0  9996","TLE_LINE2":"2 44917  53.0571 339.1911 0001100 105.1158 254.9953 15.06400684 86272"},{"CCSDS_OMM_VERS":"2.0","COMMENT":"GENERATED VIA SPACE-TRACK.ORG API","CREATION_DATE":"2021-07-31T17:34:40","ORIGINATOR":"18 SPCS","OBJECT_NAME":"STARLINK-1098","OBJECT_ID":"2020-001D","CENTER_NAME":"EARTH","REF_FRAME":"TEME","TIME_SYSTEM":"UTC","MEAN_ELEMENT_THEORY":"SGP4","EPOCH":"2021-07-31T15:02:14.599968","MEAN_MOTION":"15.06394528","ECCENTRICITY":"0.00011070","INCLINATION":"53.0571","RA_OF_ASC_NODE":"337.7021","ARG_OF_PERICENTER":"104.4342","MEAN_ANOMALY":"255.6770","EPHEMERIS_TYPE":"0","CLASSIFICATION_TYPE":"U","NORAD_CAT_ID":"44917","ELEMENT_SET_NO":"999","REV_AT_EPOCH":"8632","BSTAR":"-0.00000030732000","MEAN_MOTION_DOT":"-0.00000286","MEAN_MOTION_DDOT":"0.0000000000000","SEMIMAJOR_AXIS":"6925.365","PERIOD":"95.592","APOAPSIS":"547.997","PERIAPSIS":"546.464","OBJECT_TYPE":"PAYLOAD","RCS_SIZE":"LARGE","COUNTRY_CODE":"US","LAUNCH_DATE":"2020-01-07","SITE":"AFETR","DECAY_DATE":null,"FILE":"3086827","GP_ID":"181835683","TLE_LINE0":"0 STARLINK-1098","TLE_LINE1":"1 44917U 20001D   21212.62655787 -.00000286  00000-0 -30732-6 0  9991","TLE_LINE2":"2 44917  53.0571 337.7021 0001107 104.4342 255.6770 15.06394528 86322"},{"CCSDS_OMM_VERS":"2.0","COMMENT":"GENERATED VIA SPACE-TRACK.ORG API","CREATION_DATE":"2021-07-31T22:36:11","ORIGINATOR":"18 SPCS","OBJECT_NAME":"STARLINK-1098","OBJECT_ID":"2020-001D","CENTER_NAME":"EARTH","REF_FRAME":"TEME","TIME_SYSTEM":"UTC","MEAN_ELEMENT_THEORY":"SGP4","EPOCH":"2021-07-31T15:02:14.599968","MEAN_MOTION":"15.06394528","ECCENTRICITY":"0.00011070","INCLINATION":"53.0571","RA_OF_ASC_NODE":"337.7021","ARG_OF_PERICENTER":"104.4342","MEAN_ANOMALY":"255.6770","EPHEMERIS_TYPE":"0","CLASSIFICATION_TYPE":"U","NORAD_CAT_ID":"44917","ELEMENT_SET_NO":"999","REV_AT_EPOCH":"8632","BSTAR":"-0.00000030732000","MEAN_MOTION_DOT":"-0.00000286","MEAN_MOTION_DDOT":"0.0000000000000","SEMIMAJOR_AXIS":"6925.365","PERIOD":"95.592","APOAPSIS":"547.997","PERIAPSIS":"546.464","OBJECT_TYPE":"PAYLOAD","RCS_SIZE":"LARGE","COUNTRY_CODE":"US","LAUNCH_DATE":"2020-01-07","SITE":"AFETR","DECAY_DATE":null,"FILE":"3086986","GP_ID":"181843811","TLE_LINE0":"0 STARLINK-1098","TLE_LINE1":"1 44917U 20001D   21212.62655787 -.00000286  00000-0 -30732-6 0  9991","TLE_LINE2":"2 44917  53.0571 337.7021 0001107 104.4342 255.6770 15.06394528 86322"},{"CCSDS_OMM_VERS":"2.0","COMMENT":"GENERATED VIA SPACE-TRACK.ORG API","CREATION_DATE":"2021-08-01T18:09:23","ORIGINATOR":"18 SPCS","OBJECT_NAME":"STARLINK-1098","OBJECT_ID":"2020-001D","CENTER_NAME":"EARTH","REF_FRAME":"TEME","TIME_SYSTEM":"UTC","MEAN_ELEMENT_THEORY":"SGP4","EPOCH":"2021-08-01T08:33:11.148192","MEAN_MOTION":"15.06391876","ECCENTRICITY":"0.00011210","INCLINATION":"53.0571","RA_OF_ASC_NODE":"334.4262","ARG_OF_PERICENTER":"104.1767","MEAN_ANOMALY":"255.9347","EPHEMERIS_TYPE":"0","CLASSIFICATION_TYPE":"U","NORAD_CAT_ID":"44917","ELEMENT_SET_NO":"999","REV_AT_EPOCH":"8643","BSTAR":"-0.00007260900000","MEAN_MOTION_DOT":"-0.00001362","MEAN_MOTION_DDOT":"0.0000000000000","SEMIMAJOR_AXIS":"6925.373","PERIOD":"95.593","APOAPSIS":"548.015","PERIAPSIS":"546.462","OBJECT_TYPE":"PAYLOAD","RCS_SIZE":"LARGE","COUNTRY_CODE":"US","LAUNCH_DATE":"2020-01-07","SITE":"AFETR","DECAY_DATE":null,"FILE":"3087492","GP_ID":"181897533","TLE_LINE0":"0 STARLINK-1098","TLE_LINE1":"1 44917U 20001D   21213.35637903 -.00001362  00000-0 -72609-4 0  9995","TLE_LINE2":"2 44917  53.0571 334.4262 0001121 104.1767 255.9347 15.06391876 86435"}]